GLOBALSTAR M094         
1 39074U 13005C   25096.19840217 -.00000097  00000+0  38852-4 0  9992
2 39074  51.9977  41.2975 0000780  86.2144 273.8812 12.62269416563308
GLOBALSTAR M078         
1 39076U 13005E   25096.50152697 -.00000030  00000+0  41251-3 0  9990
2 39076  51.9865 173.4417 0001010  49.5192 310.5763 12.62260333561072
GLOBALSTAR M087         
1 52888U 22064A   25096.00456329 -.00000067  00000+0  20444-3 0  9996
2 52888  51.9802 313.5942 0000927  85.1234 274.9738 12.62270446136257
